OBJECT_NAME,OBJECT_ID,EPOCH,MEAN_MOTION,ECCENTRICITY,INCLINATION,RA_OF_ASC_NODE,ARG_OF_PERICENTER,MEAN_ANOMALY,EPHEMERIS_TYPE,CLASSIFICATION_TYPE,NORAD_CAT_ID,ELEMENT_SET_NO,REV_AT_EPOCH,BSTAR,MEAN_MOTION_DOT,MEAN_MOTION_DDOT
FLORIPASAT-1,2019-093G,2026-07-03T11:01:36.220800,15.04053163,.001188,97.7942,278.8109,23.0733,337.1023,0,U,44885,999,35509,.45003E-3,.6174E-4,0
SHUNTIAN,2019-093H,2026-07-04T22:37:05.458656,14.95249944,.00119894,97.8015,274.0140,14.6110,345.5455,0,U,44886,999,35483,.32055274E-3,.3474E-4,0
ELEKTRO-L 3,2019-095A,2026-07-04T21:05:33.230976,1.00272340,.00016506,0.3002,81.9987,9.5282,223.7366,0,U,44903,999,2388,0,-.84E-6,0
GONETS-M 14,2019-096A,2026-07-04T23:58:59.443104,12.42870502,.00142129,82.5227,73.5978,110.9791,249.2811,0,U,44905,999,29589,.89224775E-4,.22E-6,0
GONETS-M 15,2019-096B,2026-07-04T22:45:23.405184,12.42871881,.00157004,82.5247,74.0939,133.1755,227.0640,0,U,44906,999,29585,-.25446587E-4,.7E-7,0
GONETS-M 16,2019-096C,2026-07-04T23:22:42.804192,12.42892199,.00105322,82.5192,73.0216,173.4207,186.7013,0,U,44907,999,29584,.81567706E-4,.21E-6,0
RS-44 & BREEZE-KM R/B,2019-096E,2026-07-04T19:55:50.730528,12.79748994,.02185869,82.5235,327.9805,103.1033,259.4562,0,U,44909,999,30460,.45232534E-4,.24E-6,0
JILIN-1 KUANFU 01,2020-003A,2026-07-04T15:19:40.890144,15.10825979,.00084345,97.5020,259.2539,236.7013,123.3410,0,U,45016,999,35796,.2822147E-3,.4631E-4,0
XINGYUN-2 01,2020-028A,2026-07-04T22:42:30.003840,15.11882851,.00103474,97.4873,177.9954,134.6730,225.5345,0,U,45602,999,33752,.1850976E-3,.3107E-4,0
XINGYUN-2 02,2020-028B,2026-07-04T23:51:35.906112,15.11611062,.00100576,97.5072,191.6728,200.9926,159.0893,0,U,45603,999,33752,.19450043E-3,.3242E-4,0
HAIYANG-1D,2020-036A,2026-07-04T23:20:56.961600,14.34179057,.00040149,98.4562,127.2666,90.6445,269.5200,0,U,45721,999,31752,.50162026E-4,.98E-6,0
M2 PATHFINDER,2020-037E,2026-07-04T06:29:10.825152,15.04757926,.00130138,97.8152,16.6938,95.4141,264.8569,0,U,45727,999,32806,.24274235E-3,.3364E-4,0
GAOFEN DUOMO (GFDM),2020-042A,2026-07-04T22:59:47.793120,14.76904038,.0011593,97.7733,245.1976,22.9821,337.1906,0,U,45856,999,32363,.78711884E-4,.505E-5,0
ZIYUAN 3-03 (ZY 3-03),2020-051A,2026-07-04T22:38:19.300416,15.21401370,.00022212,97.2819,253.0935,242.2181,117.8831,0,U,45939,999,33004,.29003558E-3,.6441E-4,0
NEMO-HD,2020-061F,2026-07-04T22:38:37.493664,15.44974060,.00013192,97.1906,247.7202,74.5324,285.6070,0,U,46277,999,32472,.35828335E-3,.16805E-3,0
NAPA-1,2020-061BA,2026-07-04T22:54:35.497728,15.70632417,.00019616,97.2445,260.7472,186.4070,173.7168,0,U,46320,999,32452,.8838806E-3,.109991E-2,0
JILIN-1 GAOFEN 3E,2020-065D,2026-07-04T14:48:41.064480,15.65969450,.00117356,97.2217,238.6540,104.4882,255.7682,0,U,46457,999,32248,.13497247E-2,.139954E-2,0
JILIN-1 GAOFEN 3F,2020-065E,2026-07-04T20:47:28.218912,15.62945717,.00130926,97.2175,236.1563,91.6685,268.6074,0,U,46458,999,32246,.11227768E-2,.102956E-2,0
JILIN-1 GAOFEN 3G,2020-065F,2026-07-04T15:26:50.471808,15.74841752,.00048304,97.2237,243.0427,337.7118,22.3937,0,U,46459,999,32268,.14421097E-2,.217333E-2,0
JILIN-1 GAOFEN 3H,2020-065G,2026-07-04T14:14:53.392992,15.70625797,.00047446,97.2181,239.2050,243.5690,116.5087,0,U,46460,999,32261,.13992465E-2,.175582E-2,0
HAIYANG-2C,2020-066A,2026-07-04T22:48:23.161248,13.83378189,.00081411,65.9953,171.0575,237.5964,122.4317,0,U,46469,999,29195,.30168818E-3,.251E-5,0
HJ-2A,2020-067A,2026-07-04T23:42:51.819264,14.76539905,.00032827,97.8824,263.9396,186.6031,173.5137,0,U,46478,999,31088,.15632021E-3,.104E-4,0
HJ-2B,2020-067B,2026-07-04T22:57:39.413952,14.76579749,.00016607,97.8889,264.9455,99.3508,260.7890,0,U,46479,999,31088,.48502023E-4,.289E-5,0
GONETS-M 17,2020-068A,2026-07-04T22:03:15.998688,12.42873666,.00222653,82.5005,336.4699,359.4604,0.6448,0,U,46486,999,26136,.14775901E-3,.3E-6,0
GONETS-M 18,2020-068B,2026-07-04T21:10:55.431264,12.42874400,.00195251,82.4959,335.6037,356.2136,3.8793,0,U,46487,999,26134,.16702275E-3,.33E-6,0
GONETS-M 19,2020-068C,2026-07-04T22:31:04.998720,12.42892243,.00135285,82.4983,336.0227,12.7584,347.3836,0,U,46488,999,26145,-.54336282E-3,-.65E-6,0
DEKART,2020-068H,2026-07-04T23:22:17.432832,15.37770892,.00080956,97.8741,196.5221,209.4171,150.6618,0,U,46493,999,31850,.50653626E-3,.18748E-3,0
