FLORIPASAT-1            
1 44885U 19093G   26184.45944700  .00006174  00000+0  45003-3 0  9997
2 44885  97.7942 278.8109 0011880  23.0733 337.1023 15.04053163355099
SHUNTIAN                
1 44886U 19093H   26185.94242429  .00003474  00000+0  32055-3 0  9995
2 44886  97.8015 274.0140 0011989  14.6110 345.5455 14.95249944354836
ELEKTRO-L 3             
1 44903U 19095A   26185.87885684 -.00000084  00000+0  00000+0 0  9991
2 44903   0.3002  81.9987 0001650   9.5282 223.7366  1.00272340 23886
GONETS-M 14             
1 44905U 19096A   26185.99929911  .00000022  00000+0  89225-4 0  9991
2 44905  82.5227  73.5978 0014212 110.9791 249.2811 12.42870502295898
GONETS-M 15             
1 44906U 19096B   26185.94818756  .00000007  00000+0 -25447-4 0  9991
2 44906  82.5247  74.0939 0015700 133.1755 227.0640 12.42871881295855
GONETS-M 16             
1 44907U 19096C   26185.97410653  .00000021  00000+0  81568-4 0  9990
2 44907  82.5192  73.0216 0010532 173.4207 186.7013 12.42892199295848
RS-44 & BREEZE-KM R/B   
1 44909U 19096E   26185.83044827  .00000024  00000+0  45233-4 0  9995
2 44909  82.5235 327.9805 0218586 103.1033 259.4562 12.79748994304604
JILIN-1 KUANFU 01       
1 45016U 20003A   26185.63866771  .00004631  00000+0  28221-3 0  9998
2 45016  97.5020 259.2539 0008434 236.7013 123.3410 15.10825979357968
XINGYUN-2 01            
1 45602U 20028A   26185.94618060  .00003107  00000+0  18510-3 0  9993
2 45602  97.4873 177.9954 0010347 134.6730 225.5345 15.11882851337524
XINGYUN-2 02            
1 45603U 20028B   26185.99416558  .00003242  00000+0  19450-3 0  9991
2 45603  97.5072 191.6728 0010057 200.9926 159.0893 15.11611062337524
HAIYANG-1D              
1 45721U 20036A   26185.97288150  .00000098  00000+0  50162-4 0  9996
2 45721  98.4562 127.2666 0004014  90.6445 269.5200 14.34179057317525
M2 PATHFINDER           
1 45727U 20037E   26185.27026418  .00003364  00000+0  24274-3 0  9996
2 45727  97.8152  16.6938 0013013  95.4141 264.8569 15.04757926328069
GAOFEN DUOMO (GFDM)     
1 45856U 20042A   26185.95819205  .00000505  00000+0  78712-4 0  9995
2 45856  97.7733 245.1976 0011593  22.9821 337.1906 14.76904038323631
ZIYUAN 3-03 (ZY 3-03)   
1 45939U 20051A   26185.94327894  .00006441  00000+0  29004-3 0  9998
2 45939  97.2819 253.0935 0002221 242.2181 117.8831 15.21401370330045
NEMO-HD                 
1 46277U 20061F   26185.94348951  .00016805  00000+0  35828-3 0  9998
2 46277  97.1906 247.7202 0001319  74.5324 285.6070 15.44974060324729
NAPA-1                  
1 46320U 20061BA  26185.95457752  .00109991  00000+0  88388-3 0  9996
2 46320  97.2445 260.7472 0001961 186.4070 173.7168 15.70632417324524
JILIN-1 GAOFEN 3E       
1 46457U 20065D   26185.61714195  .00139954  00000+0  13497-2 0  9991
2 46457  97.2217 238.6540 0011735 104.4882 255.7682 15.65969450322482
JILIN-1 GAOFEN 3F       
1 46458U 20065E   26185.86629883  .00102956  00000+0  11228-2 0  9990
2 46458  97.2175 236.1563 0013092  91.6685 268.6074 15.62945717322463
JILIN-1 GAOFEN 3G       
1 46459U 20065F   26185.64363972  .00217333  00000+0  14421-2 0  9995
2 46459  97.2237 243.0427 0004830 337.7118  22.3937 15.74841752322688
JILIN-1 GAOFEN 3H       
1 46460U 20065G   26185.59367353  .00175582  00000+0  13992-2 0  9999
2 46460  97.2181 239.2050 0004744 243.5690 116.5087 15.70625797322610
HAIYANG-2C              
1 46469U 20066A   26185.95026807  .00000251  00000+0  30169-3 0  9991
2 46469  65.9953 171.0575 0008141 237.5964 122.4317 13.83378189291951
HJ-2A                   
1 46478U 20067A   26185.98809976  .00001040  00000+0  15632-3 0  9996
2 46478  97.8824 263.9396 0003282 186.6031 173.5137 14.76539905310883
HJ-2B                   
1 46479U 20067B   26185.95670618  .00000289  00000+0  48502-4 0  9990
2 46479  97.8889 264.9455 0001660  99.3508 260.7890 14.76579749310884
GONETS-M 17             
1 46486U 20068A   26185.91893517  .00000030  00000+0  14776-3 0  9999
2 46486  82.5005 336.4699 0022265 359.4604   0.6448 12.42873666261363
GONETS-M 18             
1 46487U 20068B   26185.88258601  .00000033  00000+0  16702-3 0  9999
2 46487  82.4959 335.6037 0019525 356.2136   3.8793 12.42874400261341
GONETS-M 19             
1 46488U 20068C   26185.93825230 -.00000065  00000+0 -54336-3 0  9996
2 46488  82.4983 336.0227 0013528  12.7584 347.3836 12.42892243261454
DEKART                  
1 46493U 20068H   26185.97381288  .00018748  00000+0  50654-3 0  9990
2 46493  97.8741 196.5221 0008095 209.4171 150.6618 15.37770892318509
